{
  "type": "FeatureCollection",
  "features": [
    {
      "type": "Feature",
      "properties": {
        "OBJECT_NAME": "TIANMU-1 07",
        "OBJECT_ID": "2023-101A",
        "EPOCH": "2025-11-29T21:21:48.177216",
        "MEAN_MOTION": 15.27787021,
        "ECCENTRICITY": 0.0005509,
        "INCLINATION": 97.29,
        "RA_OF_ASC_NODE": 24.0249,
        "ARG_OF_PERICENTER": 114.2636,
        "MEAN_ANOMALY": 245.9179,
        "EPHEMERIS_TYPE": 0,
        "CLASSIFICATION_TYPE": "U",
        "NORAD_CAT_ID": 57399,
        "ELEMENT_SET_NO": 999,
        "REV_AT_EPOCH": 13119,
        "BSTAR": 0.00029333,
        "MEAN_MOTION_DOT": 7.892e-05,
        "MEAN_MOTION_DDOT": 0,
        "norad_id": 57399,
        "name": "TIANMU-1 07",
        "group": "weather",
        "longitude_deg": NaN,
        "latitude_deg": NaN,
        "alt_km": NaN,
        "orbit_class": "HEO",
        "timestamp": "2025-11-30T07:29:52.848078+00:00"
      },
      "geometry": {
        "type": "Point",
        "coordinates": [
          NaN,
          NaN
        ]
      }
    },
    {
      "type": "Feature",
      "properties": {
        "OBJECT_NAME": "TIANMU-1 08",
        "OBJECT_ID": "2023-101B",
        "EPOCH": "2025-11-29T20:34:00.361632",
        "MEAN_MOTION": 15.27771807,
        "ECCENTRICITY": 0.0007349,
        "INCLINATION": 97.2889,
        "RA_OF_ASC_NODE": 23.7929,
        "ARG_OF_PERICENTER": 120.1668,
        "MEAN_ANOMALY": 240.03,
        "EPHEMERIS_TYPE": 0,
        "CLASSIFICATION_TYPE": "U",
        "NORAD_CAT_ID": 57400,
        "ELEMENT_SET_NO": 999,
        "REV_AT_EPOCH": 13118,
        "BSTAR": 0.00026916,
        "MEAN_MOTION_DOT": 7.235e-05,
        "MEAN_MOTION_DDOT": 0,
        "norad_id": 57400,
        "name": "TIANMU-1 08",
        "group": "weather",
        "longitude_deg": NaN,
        "latitude_deg": NaN,
        "alt_km": NaN,
        "orbit_class": "HEO",
        "timestamp": "2025-11-30T07:29:52.848084+00:00"
      },
      "geometry": {
        "type": "Point",
        "coordinates": [
          NaN,
          NaN
        ]
      }
    },
    {
      "type": "Feature",
      "properties": {
        "OBJECT_NAME": "TIANMU-1 09",
        "OBJECT_ID": "2023-101C",
        "EPOCH": "2025-11-29T20:15:16.312320",
        "MEAN_MOTION": 15.2779163,
        "ECCENTRICITY": 0.0006618,
        "INCLINATION": 97.2846,
        "RA_OF_ASC_NODE": 23.3005,
        "ARG_OF_PERICENTER": 119.0362,
        "MEAN_ANOMALY": 241.1542,
        "EPHEMERIS_TYPE": 0,
        "CLASSIFICATION_TYPE": "U",
        "NORAD_CAT_ID": 57401,
        "ELEMENT_SET_NO": 999,
        "REV_AT_EPOCH": 13118,
        "BSTAR": 0.00028927,
        "MEAN_MOTION_DOT": 7.785e-05,
        "MEAN_MOTION_DDOT": 0,
        "norad_id": 57401,
        "name": "TIANMU-1 09",
        "group": "weather",
        "longitude_deg": NaN,
        "latitude_deg": NaN,
        "alt_km": NaN,
        "orbit_class": "HEO",
        "timestamp": "2025-11-30T07:29:52.848090+00:00"
      },
      "geometry": {
        "type": "Point",
        "coordinates": [
          NaN,
          NaN
        ]
      }
    },
    {
      "type": "Feature",
      "properties": {
        "OBJECT_NAME": "TIANMU-1 10",
        "OBJECT_ID": "2023-101D",
        "EPOCH": "2025-11-29T19:30:07.373376",
        "MEAN_MOTION": 15.27781685,
        "ECCENTRICITY": 0.0008372,
        "INCLINATION": 97.2926,
        "RA_OF_ASC_NODE": 24.1059,
        "ARG_OF_PERICENTER": 121.0626,
        "MEAN_ANOMALY": 239.1437,
        "EPHEMERIS_TYPE": 0,
        "CLASSIFICATION_TYPE": "U",
        "NORAD_CAT_ID": 57402,
        "ELEMENT_SET_NO": 999,
        "REV_AT_EPOCH": 13117,
        "BSTAR": 0.00029189,
        "MEAN_MOTION_DOT": 7.856e-05,
        "MEAN_MOTION_DDOT": 0,
        "norad_id": 57402,
        "name": "TIANMU-1 10",
        "group": "weather",
        "longitude_deg": NaN,
        "latitude_deg": NaN,
        "alt_km": NaN,
        "orbit_class": "HEO",
        "timestamp": "2025-11-30T07:29:52.848096+00:00"
      },
      "geometry": {
        "type": "Point",
        "coordinates": [
          NaN,
          NaN
        ]
      }
    },
    {
      "type": "Feature",
      "properties": {
        "OBJECT_NAME": "FENGYUN 3F",
        "OBJECT_ID": "2023-111A",
        "EPOCH": "2025-11-29T20:04:16.529952",
        "MEAN_MOTION": 14.19888106,
        "ECCENTRICITY": 7.33e-05,
        "INCLINATION": 98.7099,
        "RA_OF_ASC_NODE": 42.337,
        "ARG_OF_PERICENTER": 81.2507,
        "MEAN_ANOMALY": 278.8752,
        "EPHEMERIS_TYPE": 0,
        "CLASSIFICATION_TYPE": "U",
        "NORAD_CAT_ID": 57490,
        "ELEMENT_SET_NO": 999,
        "REV_AT_EPOCH": 12057,
        "BSTAR": 5.4909e-05,
        "MEAN_MOTION_DOT": 7.3e-07,
        "MEAN_MOTION_DDOT": 0,
        "norad_id": 57490,
        "name": "FENGYUN 3F",
        "group": "weather",
        "longitude_deg": NaN,
        "latitude_deg": NaN,
        "alt_km": NaN,
        "orbit_class": "HEO",
        "timestamp": "2025-11-30T07:29:52.848509+00:00"
      },
      "geometry": {
        "type": "Point",
        "coordinates": [
          NaN,
          NaN
        ]
      }
    },
    {
      "type": "Feature",
      "properties": {
        "OBJECT_NAME": "ARKTIKA-M 2",
        "OBJECT_ID": "2023-198A",
        "EPOCH": "2025-11-25T09:09:19.764864",
        "MEAN_MOTION": 2.00606686,
        "ECCENTRICITY": 0.68638015,
        "INCLINATION": 63.2269,
        "RA_OF_ASC_NODE": 176.763,
        "ARG_OF_PERICENTER": 268.1765,
        "MEAN_ANOMALY": 18.8388,
        "EPHEMERIS_TYPE": 0,
        "CLASSIFICATION_TYPE": "U",
        "NORAD_CAT_ID": 58584,
        "ELEMENT_SET_NO": 999,
        "REV_AT_EPOCH": 1423,
        "BSTAR": 0,
        "MEAN_MOTION_DOT": 2.01e-06,
        "MEAN_MOTION_DDOT": 0,
        "norad_id": 58584,
        "name": "ARKTIKA-M 2",
        "group": "weather",
        "longitude_deg": NaN,
        "latitude_deg": NaN,
        "alt_km": NaN,
        "orbit_class": "HEO",
        "timestamp": "2025-11-30T07:29:52.854136+00:00"
      },
      "geometry": {
        "type": "Point",
        "coordinates": [
          NaN,
          NaN
        ]
      }
    },
    {
      "type": "Feature",
      "properties": {
        "OBJECT_NAME": "TIANMU-1 11",
        "OBJECT_ID": "2023-205A",
        "EPOCH": "2025-11-29T19:35:32.078400",
        "MEAN_MOTION": 15.24358988,
        "ECCENTRICITY": 0.0009251,
        "INCLINATION": 97.3624,
        "RA_OF_ASC_NODE": 353.6688,
        "ARG_OF_PERICENTER": 359.8613,
        "MEAN_ANOMALY": 0.262,
        "EPHEMERIS_TYPE": 0,
        "CLASSIFICATION_TYPE": "U",
        "NORAD_CAT_ID": 58645,
        "ELEMENT_SET_NO": 999,
        "REV_AT_EPOCH": 10712,
        "BSTAR": 0.00027007,
        "MEAN_MOTION_DOT": 6.549e-05,
        "MEAN_MOTION_DDOT": 0,
        "norad_id": 58645,
        "name": "TIANMU-1 11",
        "group": "weather",
        "longitude_deg": NaN,
        "latitude_deg": NaN,
        "alt_km": NaN,
        "orbit_class": "HEO",
        "timestamp": "2025-11-30T07:29:52.854429+00:00"
      },
      "geometry": {
        "type": "Point",
        "coordinates": [
          NaN,
          NaN
        ]
      }
    },
    {
      "type": "Feature",
      "properties": {
        "OBJECT_NAME": "TIANMU-1 12",
        "OBJECT_ID": "2023-205B",
        "EPOCH": "2025-11-29T20:13:08.016096",
        "MEAN_MOTION": 15.24270578,
        "ECCENTRICITY": 0.0007038,
        "INCLINATION": 97.3611,
        "RA_OF_ASC_NODE": 353.5041,
        "ARG_OF_PERICENTER": 346.4672,
        "MEAN_ANOMALY": 13.6375,
        "EPHEMERIS_TYPE": 0,
        "CLASSIFICATION_TYPE": "U",
        "NORAD_CAT_ID": 58646,
        "ELEMENT_SET_NO": 999,
        "REV_AT_EPOCH": 10711,
        "BSTAR": 0.00025759,
        "MEAN_MOTION_DOT": 6.223e-05,
        "MEAN_MOTION_DDOT": 0,
        "norad_id": 58646,
        "name": "TIANMU-1 12",
        "group": "weather",
        "longitude_deg": NaN,
        "latitude_deg": NaN,
        "alt_km": NaN,
        "orbit_class": "HEO",
        "timestamp": "2025-11-30T07:29:52.854437+00:00"
      },
      "geometry": {
        "type": "Point",
        "coordinates": [
          NaN,
          NaN
        ]
      }
    }
  ]
}