TIANMU-1 07             
1 57399U 23101A   25333.89014094  .00007892  00000+0  29333-3 0  9999
2 57399  97.2900  24.0249 0005509 114.2636 245.9179 15.27787021131197
TIANMU-1 08             
1 57400U 23101B   25333.85694863  .00007235  00000+0  26916-3 0  9991
2 57400  97.2889  23.7929 0007349 120.1668 240.0300 15.27771807131188
TIANMU-1 09             
1 57401U 23101C   25333.84393880  .00007785  00000+0  28927-3 0  9990
2 57401  97.2846  23.3005 0006618 119.0362 241.1542 15.27791630131185
TIANMU-1 10             
1 57402U 23101D   25333.81258534  .00007856  00000+0  29189-3 0  9994
2 57402  97.2926  24.1059 0008372 121.0626 239.1437 15.27781685131176
FENGYUN 3F              
1 57490U 23111A   25333.83630243  .00000073  00000+0  54909-4 0  9998
2 57490  98.7099  42.3370 0000733  81.2507 278.8752 14.19888106120574
ARKTIKA-M 2             
1 58584U 23198A   25329.38147876  .00000201  00000+0  00000+0 0  9999
2 58584  63.2269 176.7630 6863801 268.1765  18.8388  2.00606686 14237
TIANMU-1 11             
1 58645U 23205A   25333.81634350  .00006549  00000+0  27007-3 0  9998
2 58645  97.3624 353.6688 0009251 359.8613   0.2620 15.24358988107126
TIANMU-1 12             
1 58646U 23205B   25333.84245389  .00006223  00000+0  25759-3 0  9993
2 58646  97.3611 353.5041 0007038 346.4672  13.6375 15.24270578107115
